STARLINK-31112          
1 58680U 23211P   26068.08997304 -.00001000  00000+0 -26824-4 0  9996
2 58680  43.0041  88.6008 0001135 265.7593  94.3129 15.27574422123551
FLOCK 4G-25             
1 62646U 25009AP  26068.74572546  .00010373  00000+0  38902-3 0  9990
2 62646  97.4049 151.4141 0000828 316.3151  43.8023 15.27424196 63734
