[{"OBJECT_NAME":"STARLINK-31112","OBJECT_ID":"2023-211P","EPOCH":"2026-03-09T02:09:33.670656","MEAN_MOTION":15.27574422,"ECCENTRICITY":0.0001135,"INCLINATION":43.0041,"RA_OF_ASC_NODE":88.6008,"ARG_OF_PERICENTER":265.7593,"MEAN_ANOMALY":94.3129,"EPHEMERIS_TYPE":0,"CLASSIFICATION_TYPE":"U","NORAD_CAT_ID":58680,"ELEMENT_SET_NO":999,"REV_AT_EPOCH":12355,"BSTAR":-2.6823561e-5,"MEAN_MOTION_DOT":-1.0e-5,"MEAN_MOTION_DDOT":0},{"OBJECT_NAME":"FLOCK 4G-25","OBJECT_ID":"2025-009AP","EPOCH":"2026-03-09T17:53:50.680608","MEAN_MOTION":15.27424196,"ECCENTRICITY":8.276e-5,"INCLINATION":97.4049,"RA_OF_ASC_NODE":151.4141,"ARG_OF_PERICENTER":316.3151,"MEAN_ANOMALY":43.8023,"EPHEMERIS_TYPE":0,"CLASSIFICATION_TYPE":"U","NORAD_CAT_ID":62646,"ELEMENT_SET_NO":999,"REV_AT_EPOCH":6373,"BSTAR":0.00038902475,"MEAN_MOTION_DOT":0.00010373,"MEAN_MOTION_DDOT":0}]
